<?xml version="1.0" encoding="UTF-8"?>
<ndm xmlns:xsi="http://www.w3.org/2001/XMLSchema-instance" xsi:noNamespaceSchemaLocation="https://sanaregistry.org/r/ndmxml_unqualified/ndmxml-2.0.0-master-2.0.xsd">
<omm id="CCSDS_OMM_VERS" version="2.0">
<header><CREATION_DATE/><ORIGINATOR/></header><body><segment><metadata><OBJECT_NAME>IRIDIUM 116</OBJECT_NAME><OBJECT_ID>2017-083C</OBJECT_ID><CENTER_NAME>EARTH</CENTER_NAME><REF_FRAME>TEME</REF_FRAME><TIME_SYSTEM>UTC</TIME_SYSTEM><MEAN_ELEMENT_THEORY>SGP4</MEAN_ELEMENT_THEORY></metadata><data><meanElements><EPOCH>2025-08-09T08:23:35.191968</EPOCH><MEAN_MOTION>14.34217885</MEAN_MOTION><ECCENTRICITY>.0002226</ECCENTRICITY><INCLINATION>86.3931</INCLINATION><RA_OF_ASC_NODE>92.3856</RA_OF_ASC_NODE><ARG_OF_PERICENTER>92.8337</ARG_OF_PERICENTER><MEAN_ANOMALY>267.3113</MEAN_ANOMALY></meanElements><tleParameters><EPHEMERIS_TYPE>0</EPHEMERIS_TYPE><CLASSIFICATION_TYPE>U</CLASSIFICATION_TYPE><NORAD_CAT_ID>43072</NORAD_CAT_ID><ELEMENT_SET_NO>999</ELEMENT_SET_NO><REV_AT_EPOCH>39947</REV_AT_EPOCH><BSTAR>.15078E-4</BSTAR><MEAN_MOTION_DOT>.62E-6</MEAN_MOTION_DOT><MEAN_MOTION_DDOT>0</MEAN_MOTION_DDOT></tleParameters></data></segment></body></omm>
<omm id="CCSDS_OMM_VERS" version="2.0">
<header><CREATION_DATE/><ORIGINATOR/></header><body><segment><metadata><OBJECT_NAME>IRIDIUM 130</OBJECT_NAME><OBJECT_ID>2017-083D</OBJECT_ID><CENTER_NAME>EARTH</CENTER_NAME><REF_FRAME>TEME</REF_FRAME><TIME_SYSTEM>UTC</TIME_SYSTEM><MEAN_ELEMENT_THEORY>SGP4</MEAN_ELEMENT_THEORY></metadata><data><meanElements><EPOCH>2025-08-09T02:36:30.960288</EPOCH><MEAN_MOTION>14.34217529</MEAN_MOTION><ECCENTRICITY>.0002041</ECCENTRICITY><INCLINATION>86.3939</INCLINATION><RA_OF_ASC_NODE>92.7314</RA_OF_ASC_NODE><ARG_OF_PERICENTER>95.8870</ARG_OF_PERICENTER><MEAN_ANOMALY>264.2559</MEAN_ANOMALY></meanElements><tleParameters><EPHEMERIS_TYPE>0</EPHEMERIS_TYPE><CLASSIFICATION_TYPE>U</CLASSIFICATION_TYPE><NORAD_CAT_ID>43073</NORAD_CAT_ID><ELEMENT_SET_NO>999</ELEMENT_SET_NO><REV_AT_EPOCH>39938</REV_AT_EPOCH><BSTAR>.78574E-4</BSTAR><MEAN_MOTION_DOT>.24E-5</MEAN_MOTION_DOT><MEAN_MOTION_DDOT>0</MEAN_MOTION_DDOT></tleParameters></data></segment></body></omm>
<omm id="CCSDS_OMM_VERS" version="2.0">
<header><CREATION_DATE/><ORIGINATOR/></header><body><segment><metadata><OBJECT_NAME>IRIDIUM 151</OBJECT_NAME><OBJECT_ID>2017-083E</OBJECT_ID><CENTER_NAME>EARTH</CENTER_NAME><REF_FRAME>TEME</REF_FRAME><TIME_SYSTEM>UTC</TIME_SYSTEM><MEAN_ELEMENT_THEORY>SGP4</MEAN_ELEMENT_THEORY></metadata><data><meanElements><EPOCH>2025-08-09T01:59:59.108928</EPOCH><MEAN_MOTION>14.34218608</MEAN_MOTION><ECCENTRICITY>.0002248</ECCENTRICITY><INCLINATION>86.3932</INCLINATION><RA_OF_ASC_NODE>92.5478</RA_OF_ASC_NODE><ARG_OF_PERICENTER>92.0749</ARG_OF_PERICENTER><MEAN_ANOMALY>268.0704</MEAN_ANOMALY></meanElements><tleParameters><EPHEMERIS_TYPE>0</EPHEMERIS_TYPE><CLASSIFICATION_TYPE>U</CLASSIFICATION_TYPE><NORAD_CAT_ID>43074</NORAD_CAT_ID><ELEMENT_SET_NO>999</ELEMENT_SET_NO><REV_AT_EPOCH>39940</REV_AT_EPOCH><BSTAR>.45807E-4</BSTAR><MEAN_MOTION_DOT>.148E-5</MEAN_MOTION_DOT><MEAN_MOTION_DDOT>0</MEAN_MOTION_DDOT></tleParameters></data></segment></body></omm>
<omm id="CCSDS_OMM_VERS" version="2.0">
<header><CREATION_DATE/><ORIGINATOR/></header><body><segment><metadata><OBJECT_NAME>IRIDIUM 134</OBJECT_NAME><OBJECT_ID>2017-083F</OBJECT_ID><CENTER_NAME>EARTH</CENTER_NAME><REF_FRAME>TEME</REF_FRAME><TIME_SYSTEM>UTC</TIME_SYSTEM><MEAN_ELEMENT_THEORY>SGP4</MEAN_ELEMENT_THEORY></metadata><data><meanElements><EPOCH>2025-08-08T21:53:23.151264</EPOCH><MEAN_MOTION>14.34217890</MEAN_MOTION><ECCENTRICITY>.0001988</ECCENTRICITY><INCLINATION>86.3934</INCLINATION><RA_OF_ASC_NODE>92.6232</RA_OF_ASC_NODE><ARG_OF_PERICENTER>93.4804</ARG_OF_PERICENTER><MEAN_ANOMALY>266.6619</MEAN_ANOMALY></meanElements><tleParameters><EPHEMERIS_TYPE>0</EPHEMERIS_TYPE><CLASSIFICATION_TYPE>U</CLASSIFICATION_TYPE><NORAD_CAT_ID>43075</NORAD_CAT_ID><ELEMENT_SET_NO>999</ELEMENT_SET_NO><REV_AT_EPOCH>39934</REV_AT_EPOCH><BSTAR>.17463E-4</BSTAR><MEAN_MOTION_DOT>.69E-6</MEAN_MOTION_DOT><MEAN_MOTION_DDOT>0</MEAN_MOTION_DDOT></tleParameters></data></segment></body></omm>
<omm id="CCSDS_OMM_VERS" version="2.0">
<header><CREATION_DATE/><ORIGINATOR/></header><body><segment><metadata><OBJECT_NAME>IRIDIUM 137</OBJECT_NAME><OBJECT_ID>2017-083G</OBJECT_ID><CENTER_NAME>EARTH</CENTER_NAME><REF_FRAME>TEME</REF_FRAME><TIME_SYSTEM>UTC</TIME_SYSTEM><MEAN_ELEMENT_THEORY>SGP4</MEAN_ELEMENT_THEORY></metadata><data><meanElements><EPOCH>2025-08-09T13:15:51.270336</EPOCH><MEAN_MOTION>14.34217998</MEAN_MOTION><ECCENTRICITY>.0002705</ECCENTRICITY><INCLINATION>86.3936</INCLINATION><RA_OF_ASC_NODE>92.4418</RA_OF_ASC_NODE><ARG_OF_PERICENTER>93.3947</ARG_OF_PERICENTER><MEAN_ANOMALY>266.7558</MEAN_ANOMALY></meanElements><tleParameters><EPHEMERIS_TYPE>0</EPHEMERIS_TYPE><CLASSIFICATION_TYPE>U</CLASSIFICATION_TYPE><NORAD_CAT_ID>43076</NORAD_CAT_ID><ELEMENT_SET_NO>999</ELEMENT_SET_NO><REV_AT_EPOCH>39950</REV_AT_EPOCH><BSTAR>.14551E-4</BSTAR><MEAN_MOTION_DOT>.61E-6</MEAN_MOTION_DOT><MEAN_MOTION_DDOT>0</MEAN_MOTION_DDOT></tleParameters></data></segment></body></omm>
<omm id="CCSDS_OMM_VERS" version="2.0">
<header><CREATION_DATE/><ORIGINATOR/></header><body><segment><metadata><OBJECT_NAME>IRIDIUM 141</OBJECT_NAME><OBJECT_ID>2017-083H</OBJECT_ID><CENTER_NAME>EARTH</CENTER_NAME><REF_FRAME>TEME</REF_FRAME><TIME_SYSTEM>UTC</TIME_SYSTEM><MEAN_ELEMENT_THEORY>SGP4</MEAN_ELEMENT_THEORY></metadata><data><meanElements><EPOCH>2025-08-09T09:45:47.100096</EPOCH><MEAN_MOTION>14.34217327</MEAN_MOTION><ECCENTRICITY>.0002129</ECCENTRICITY><INCLINATION>86.3929</INCLINATION><RA_OF_ASC_NODE>92.3509</RA_OF_ASC_NODE><ARG_OF_PERICENTER>82.2788</ARG_OF_PERICENTER><MEAN_ANOMALY>277.8649</MEAN_ANOMALY></meanElements><tleParameters><EPHEMERIS_TYPE>0</EPHEMERIS_TYPE><CLASSIFICATION_TYPE>U</CLASSIFICATION_TYPE><NORAD_CAT_ID>43077</NORAD_CAT_ID><ELEMENT_SET_NO>999</ELEMENT_SET_NO><REV_AT_EPOCH>39948</REV_AT_EPOCH><BSTAR>.277E-4</BSTAR><MEAN_MOTION_DOT>.97E-6</MEAN_MOTION_DOT><MEAN_MOTION_DDOT>0</MEAN_MOTION_DDOT></tleParameters></data></segment></body></omm>
<omm id="CCSDS_OMM_VERS" version="2.0">
<header><CREATION_DATE/><ORIGINATOR/></header><body><segment><metadata><OBJECT_NAME>IRIDIUM 153</OBJECT_NAME><OBJECT_ID>2017-083J</OBJECT_ID><CENTER_NAME>EARTH</CENTER_NAME><REF_FRAME>TEME</REF_FRAME><TIME_SYSTEM>UTC</TIME_SYSTEM><MEAN_ELEMENT_THEORY>SGP4</MEAN_ELEMENT_THEORY></metadata><data><meanElements><EPOCH>2025-08-09T01:55:03.386784</EPOCH><MEAN_MOTION>14.34217729</MEAN_MOTION><ECCENTRICITY>.0001924</ECCENTRICITY><INCLINATION>86.3920</INCLINATION><RA_OF_ASC_NODE>60.9400</RA_OF_ASC_NODE><ARG_OF_PERICENTER>78.1077</ARG_OF_PERICENTER><MEAN_ANOMALY>282.0334</MEAN_ANOMALY></meanElements><tleParameters><EPHEMERIS_TYPE>0</EPHEMERIS_TYPE><CLASSIFICATION_TYPE>U</CLASSIFICATION_TYPE><NORAD_CAT_ID>43078</NORAD_CAT_ID><ELEMENT_SET_NO>999</ELEMENT_SET_NO><REV_AT_EPOCH>40054</REV_AT_EPOCH><BSTAR>.16855E-4</BSTAR><MEAN_MOTION_DOT>.67E-6</MEAN_MOTION_DOT><MEAN_MOTION_DDOT>0</MEAN_MOTION_DDOT></tleParameters></data></segment></body></omm>
<omm id="CCSDS_OMM_VERS" version="2.0">
<header><CREATION_DATE/><ORIGINATOR/></header><body><segment><metadata><OBJECT_NAME>IRIDIUM 131</OBJECT_NAME><OBJECT_ID>2017-083K</OBJECT_ID><CENTER_NAME>EARTH</CENTER_NAME><REF_FRAME>TEME</REF_FRAME><TIME_SYSTEM>UTC</TIME_SYSTEM><MEAN_ELEMENT_THEORY>SGP4</MEAN_ELEMENT_THEORY></metadata><data><meanElements><EPOCH>2025-08-08T21:44:15.231840</EPOCH><MEAN_MOTION>14.34217745</MEAN_MOTION><ECCENTRICITY>.0002235</ECCENTRICITY><INCLINATION>86.3936</INCLINATION><RA_OF_ASC_NODE>92.7259</RA_OF_ASC_NODE><ARG_OF_PERICENTER>82.9647</ARG_OF_PERICENTER><MEAN_ANOMALY>277.1803</MEAN_ANOMALY></meanElements><tleParameters><EPHEMERIS_TYPE>0</EPHEMERIS_TYPE><CLASSIFICATION_TYPE>U</CLASSIFICATION_TYPE><NORAD_CAT_ID>43079</NORAD_CAT_ID><ELEMENT_SET_NO>999</ELEMENT_SET_NO><REV_AT_EPOCH>39934</REV_AT_EPOCH><BSTAR>.1564E-4</BSTAR><MEAN_MOTION_DOT>.64E-6</MEAN_MOTION_DOT><MEAN_MOTION_DDOT>0</MEAN_MOTION_DDOT></tleParameters></data></segment></body></omm>

</ndm>
