IRIDIUM 116             
1 43072U 17083C   25221.34971287  .00000062  00000+0  15078-4 0  9990
2 43072  86.3931  92.3856 0002226  92.8337 267.3113 14.34217885399473
IRIDIUM 130             
1 43073U 17083D   25221.10869167  .00000240  00000+0  78574-4 0  9996
2 43073  86.3939  92.7314 0002041  95.8870 264.2559 14.34217529399380
IRIDIUM 151             
1 43074U 17083E   25221.08332302  .00000148  00000+0  45807-4 0  9990
2 43074  86.3932  92.5478 0002248  92.0749 268.0704 14.34218608399402
IRIDIUM 134             
1 43075U 17083F   25220.91207351  .00000069  00000+0  17463-4 0  9996
2 43075  86.3934  92.6232 0001988  93.4804 266.6619 14.34217890399345
IRIDIUM 137             
1 43076U 17083G   25221.55267674  .00000061  00000+0  14551-4 0  9999
2 43076  86.3936  92.4418 0002705  93.3947 266.7558 14.34217998399507
IRIDIUM 141             
1 43077U 17083H   25221.40679514  .00000097  00000+0  27700-4 0  9993
2 43077  86.3929  92.3509 0002129  82.2788 277.8649 14.34217327399487
IRIDIUM 153             
1 43078U 17083J   25221.07990031  .00000067  00000+0  16855-4 0  9993
2 43078  86.3920  60.9400 0001924  78.1077 282.0334 14.34217729400542
IRIDIUM 131             
1 43079U 17083K   25220.90573185  .00000064  00000+0  15640-4 0  9990
2 43079  86.3936  92.7259 0002235  82.9647 277.1803 14.34217745399346
